{"type": "FeatureCollection", "features": [ {"type": "Feature", "properties": {"norad_id": 36262, "name": "FENGYUN 1C DEB", "group": "fengyun-1c-debris", "lat": 58.685139007354564, "lon": -155.2362267134555, "alt_km": 816.8202951125504, "timestamp": "2025-12-05T11:32:56.306829+00:00", "meta": {"OBJECT_NAME": "FENGYUN 1C DEB", "OBJECT_ID": "1999-025DWP", "EPOCH": "2025-11-29T22:24:04.978944", "MEAN_MOTION": 14.2777405, "ECCENTRICITY": 0.00602689, "INCLINATION": 98.9619, "RA_OF_ASC_NODE": 214.1092, "ARG_OF_PERICENTER": 312.9756, "MEAN_ANOMALY": 46.638, "EPHEMERIS_TYPE": 0, "CLASSIFICATION_TYPE": "U", "NORAD_CAT_ID": 36262, "ELEMENT_SET_NO": 999, "REV_AT_EPOCH": 89314, "BSTAR": 0.00033614212, "MEAN_MOTION_DOT": 7.99e-06, "MEAN_MOTION_DDOT": 0}, "tle": {"line1": "1 36262U 99025DWP 25333.93339096  .00000799  00000+0  33614-3 0  9996", "line2": "2 36262  98.9619 214.1092 0060268 312.9756  46.6380 14.27774050893146"}}, "geometry": {"type": "Point", "coordinates": [-155.2362267134555, 58.685139007354564]}}, {"type": "Feature", "properties": {"norad_id": 36263, "name": "FENGYUN 1C DEB", "group": "fengyun-1c-debris", "lat": 52.94198333136389, "lon": 52.20611494611768, "alt_km": 760.8674477942031, "timestamp": "2025-12-05T11:32:56.306839+00:00", "meta": {"OBJECT_NAME": "FENGYUN 1C DEB", "OBJECT_ID": "1999-025DWQ", "EPOCH": "2025-11-27T03:35:49.168032", "MEAN_MOTION": 14.45321264, "ECCENTRICITY": 0.00376819, "INCLINATION": 98.9999, "RA_OF_ASC_NODE": 211.2643, "ARG_OF_PERICENTER": 311.7324, "MEAN_ANOMALY": 48.0645, "EPHEMERIS_TYPE": 0, "CLASSIFICATION_TYPE": "U", "NORAD_CAT_ID": 36263, "ELEMENT_SET_NO": 999, "REV_AT_EPOCH": 87760, "BSTAR": 0.002195983, "MEAN_MOTION_DOT": 7.739e-05, "MEAN_MOTION_DDOT": 0}, "tle": {"line1": "1 36263U 99025DWQ 25331.14987463  .00007739  00000+0  21960-2 0  9996", "line2": "2 36263  98.9999 211.2643 0037681 311.7324  48.0645 14.45321264877607"}}, "geometry": {"type": "Point", "coordinates": [52.20611494611768, 52.94198333136389]}}, {"type": "Feature", "properties": {"norad_id": 36267, "name": "FENGYUN 1C DEB", "group": "fengyun-1c-debris", "lat": -37.11542570513312, "lon": 100.68744938527085, "alt_km": 779.6867130236342, "timestamp": "2025-12-05T11:32:56.306850+00:00", "meta": {"OBJECT_NAME": "FENGYUN 1C DEB", "OBJECT_ID": "1999-025DWU", "EPOCH": "2025-11-30T19:52:05.469312", "MEAN_MOTION": 14.09025042, "ECCENTRICITY": 0.01270184, "INCLINATION": 98.5575, "RA_OF_ASC_NODE": 282.8095, "ARG_OF_PERICENTER": 244.8225, "MEAN_ANOMALY": 141.9466, "EPHEMERIS_TYPE": 0, "CLASSIFICATION_TYPE": "U", "NORAD_CAT_ID": 36267, "ELEMENT_SET_NO": 999, "REV_AT_EPOCH": 86362, "BSTAR": 0.0011045203, "MEAN_MOTION_DOT": 2.02e-05, "MEAN_MOTION_DDOT": 0}, "tle": {"line1": "1 36267U 99025DWU 25334.82784108  .00002020  00000+0  11045-2 0  9990", "line2": "2 36267  98.5575 282.8095 0127018 244.8225 141.9466 14.09025042863628"}}, "geometry": {"type": "Point", "coordinates": [100.68744938527085, -37.11542570513312]}}, {"type": "Feature", "properties": {"norad_id": 36269, "name": "FENGYUN 1C DEB", "group": "fengyun-1c-debris", "lat": -38.90720068275141, "lon": 93.6981799516381, "alt_km": 779.4441921693306, "timestamp": "2025-12-05T11:32:56.306860+00:00", "meta": {"OBJECT_NAME": "FENGYUN 1C DEB", "OBJECT_ID": "1999-025DWW", "EPOCH": "2025-12-04T02:31:39.906336", "MEAN_MOTION": 14.26965944, "ECCENTRICITY": 0.02335764, "INCLINATION": 99.1075, "RA_OF_ASC_NODE": 279.704, "ARG_OF_PERICENTER": 304.803, "MEAN_ANOMALY": 53.1368, "EPHEMERIS_TYPE": 0, "CLASSIFICATION_TYPE": "U", "NORAD_CAT_ID": 36269, "ELEMENT_SET_NO": 999, "REV_AT_EPOCH": 87593, "BSTAR": 0.0020048601, "MEAN_MOTION_DOT": 6.46e-05, "MEAN_MOTION_DDOT": 0}, "tle": {"line1": "1 36269U 99025DWW 25338.10532299  .00006460  00000+0  20049-2 0  9995", "line2": "2 36269  99.1075 279.7040 0233576 304.8030  53.1368 14.26965944875930"}}, "geometry": {"type": "Point", "coordinates": [93.6981799516381, -38.90720068275141]}}, {"type": "Feature", "properties": {"norad_id": 36272, "name": "FENGYUN 1C DEB", "group": "fengyun-1c-debris", "lat": -20.467762631414065, "lon": 32.11523684776521, "alt_km": 834.0078938468996, "timestamp": "2025-12-05T11:32:56.306871+00:00", "meta": {"OBJECT_NAME": "FENGYUN 1C DEB", "OBJECT_ID": "1999-025DWZ", "EPOCH": "2025-12-03T09:27:01.103328", "MEAN_MOTION": 14.17212531, "ECCENTRICITY": 0.01683371, "INCLINATION": 99.1372, "RA_OF_ASC_NODE": 213.4136, "ARG_OF_PERICENTER": 294.7142, "MEAN_ANOMALY": 63.659, "EPHEMERIS_TYPE": 0, "CLASSIFICATION_TYPE": "U", "NORAD_CAT_ID": 36272, "ELEMENT_SET_NO": 999, "REV_AT_EPOCH": 63484, "BSTAR": 0.00071361155, "MEAN_MOTION_DOT": 1.606e-05, "MEAN_MOTION_DDOT": 0}, "tle": {"line1": "1 36272U 99025DWZ 25337.39376277  .00001606  00000+0  71361-3 0  9992", "line2": "2 36272  99.1372 213.4136 0168337 294.7142  63.6590 14.17212531634841"}}, "geometry": {"type": "Point", "coordinates": [32.11523684776521, -20.467762631414065]}}, {"type": "Feature", "properties": {"norad_id": 36273, "name": "FENGYUN 1C DEB", "group": "fengyun-1c-debris", "lat": -23.425676146934, "lon": 24.152978261720836, "alt_km": 910.4898513852268, "timestamp": "2025-12-05T11:32:56.306881+00:00", "meta": {"OBJECT_NAME": "FENGYUN 1C DEB", "OBJECT_ID": "1999-025DXA", "EPOCH": "2025-12-03T21:17:46.785120", "MEAN_MOTION": 14.16550178, "ECCENTRICITY": 0.009769, "INCLINATION": 99.6049, "RA_OF_ASC_NODE": 206.6416, "ARG_OF_PERICENTER": 13.2177, "MEAN_ANOMALY": 347.152, "EPHEMERIS_TYPE": 0, "CLASSIFICATION_TYPE": "U", "NORAD_CAT_ID": 36273, "ELEMENT_SET_NO": 999, "REV_AT_EPOCH": 66108, "BSTAR": 0.00050173, "MEAN_MOTION_DOT": 9.97e-06, "MEAN_MOTION_DDOT": 0}, "tle": {"line1": "1 36273U 99025DXA 25337.88734705  .00000997  00000+0  50173-3 0  9991", "line2": "2 36273  99.6049 206.6416 0097690  13.2177 347.1520 14.16550178661088"}}, "geometry": {"type": "Point", "coordinates": [24.152978261720836, -23.425676146934]}}, {"type": "Feature", "properties": {"norad_id": 36274, "name": "FENGYUN 1C DEB", "group": "fengyun-1c-debris", "lat": 39.74043630785596, "lon": 45.67104878482198, "alt_km": 849.310701374081, "timestamp": "2025-12-05T11:32:56.306891+00:00", "meta": {"OBJECT_NAME": "FENGYUN 1C DEB", "OBJECT_ID": "1999-025DXB", "EPOCH": "2025-12-04T11:48:44.009856", "MEAN_MOTION": 14.23300898, "ECCENTRICITY": 0.0061737, "INCLINATION": 99.1398, "RA_OF_ASC_NODE": 52.3365, "ARG_OF_PERICENTER": 253.3757, "MEAN_ANOMALY": 121.7954, "EPHEMERIS_TYPE": 0, "CLASSIFICATION_TYPE": "U", "NORAD_CAT_ID": 36274, "ELEMENT_SET_NO": 999, "REV_AT_EPOCH": 62868, "BSTAR": 0.0073422, "MEAN_MOTION_DOT": 0.00016953, "MEAN_MOTION_DDOT": 0}, "tle": {"line1": "1 36274U 99025DXB 25338.49217604  .00016953  00000+0  73422-2 0  9994", "line2": "2 36274  99.1398  52.3365 0061737 253.3757 121.7954 14.23300898628680"}}, "geometry": {"type": "Point", "coordinates": [45.67104878482198, 39.74043630785596]}}, {"type": "Feature", "properties": {"norad_id": 36278, "name": "FENGYUN 1C DEB", "group": "fengyun-1c-debris", "lat": 64.88882498824907, "lon": -122.46992887130622, "alt_km": 846.3985645860566, "timestamp": "2025-12-05T11:32:56.306901+00:00", "meta": {"OBJECT_NAME": "FENGYUN 1C DEB", "OBJECT_ID": "1999-025DXF", "EPOCH": "2025-12-04T01:21:08.443872", "MEAN_MOTION": 14.17353569, "ECCENTRICITY": 0.00613363, "INCLINATION": 99.1236, "RA_OF_ASC_NODE": 256.1206, "ARG_OF_PERICENTER": 315.5831, "MEAN_ANOMALY": 44.0433, "EPHEMERIS_TYPE": 0, "CLASSIFICATION_TYPE": "U", "NORAD_CAT_ID": 36278, "ELEMENT_SET_NO": 999, "REV_AT_EPOCH": 93353, "BSTAR": 0.0008477729, "MEAN_MOTION_DOT": 1.7e-05, "MEAN_MOTION_DDOT": 0}, "tle": {"line1": "1 36278U 99025DXF 25338.05634773  .00001700  00000+0  84777-3 0  9990", "line2": "2 36278  99.1236 256.1206 0061336 315.5831  44.0433 14.17353569933530"}}, "geometry": {"type": "Point", "coordinates": [-122.46992887130622, 64.88882498824907]}}, {"type": "Feature", "properties": {"norad_id": 36279, "name": "FENGYUN 1C DEB", "group": "fengyun-1c-debris", "lat": 19.512829754071717, "lon": 140.84451338189993, "alt_km": 838.9630475338381, "timestamp": "2025-12-05T11:32:56.306912+00:00", "meta": {"OBJECT_NAME": "FENGYUN 1C DEB", "OBJECT_ID": "1999-025DXG", "EPOCH": "2025-11-25T16:33:32.008320", "MEAN_MOTION": 14.14714647, "ECCENTRICITY": 0.00629921, "INCLINATION": 98.56, "RA_OF_ASC_NODE": 308.3956, "ARG_OF_PERICENTER": 103.3746, "MEAN_ANOMALY": 257.4461, "EPHEMERIS_TYPE": 0, "CLASSIFICATION_TYPE": "U", "NORAD_CAT_ID": 36279, "ELEMENT_SET_NO": 999, "REV_AT_EPOCH": 88798, "BSTAR": 0.00016006279, "MEAN_MOTION_DOT": 2.73e-06, "MEAN_MOTION_DDOT": 0}, "tle": {"line1": "1 36279U 99025DXG 25329.68995380  .00000273  00000+0  16006-3 0  9998", "line2": "2 36279  98.5600 308.3956 0062992 103.3746 257.4461 14.14714647887981"}}, "geometry": {"type": "Point", "coordinates": [140.84451338189993, 19.512829754071717]}}, {"type": "Feature", "properties": {"norad_id": 36280, "name": "FENGYUN 1C DEB", "group": "fengyun-1c-debris", "lat": -32.306397470591584, "lon": 14.263963812593671, "alt_km": 888.1649891539919, "timestamp": "2025-12-05T11:32:56.306922+00:00", "meta": {"OBJECT_NAME": "FENGYUN 1C DEB", "OBJECT_ID": "1999-025DXH", "EPOCH": "2025-12-02T19:47:23.057952", "MEAN_MOTION": 14.09689517, "ECCENTRICITY": 0.00636593, "INCLINATION": 98.7683, "RA_OF_ASC_NODE": 6.0758, "ARG_OF_PERICENTER": 93.3379, "MEAN_ANOMALY": 80.0221, "EPHEMERIS_TYPE": 0, "CLASSIFICATION_TYPE": "U", "NORAD_CAT_ID": 36280, "ELEMENT_SET_NO": 999, "REV_AT_EPOCH": 86214, "BSTAR": 0.0011452484, "MEAN_MOTION_DOT": 2.005e-05, "MEAN_MOTION_DDOT": 0}, "tle": {"line1": "1 36280U 99025DXH 25336.82457243  .00002005  00000+0  11452-2 0  9999", "line2": "2 36280  98.7683   6.0758 0063659  93.3379  80.0221 14.09689517862145"}}, "geometry": {"type": "Point", "coordinates": [14.263963812593671, -32.306397470591584]}}]}